{
  "norad_id": 58721,
  "name": "STARLINK-30972",
  "history": [
    {
      "epoch": "2026-03-28T13:06:18.865152Z",
      "apogee_km": 476.0444219386118,
      "perigee_km": 474.4146913714394,
      "latitude_deg": 4.7323309508978086e-05,
      "longitude_deg": 119.70838157419863,
      "height_km": 475.75094109197204,
      "semi_major_axis_km": 6853.366556655025,
      "eccentricity": 0.0001189,
      "inclination_deg": 53.16,
      "raan_deg": 142.2519,
      "arg_perigee_deg": 62.443,
      "mean_anomaly_deg": 297.6692,
      "mean_motion_rev_day": 15.30195148
    },
    {
      "epoch": "2026-03-29T09:29:00.929760Z",
      "apogee_km": 476.03067143662884,
      "perigee_km": 474.4623431548198,
      "latitude_deg": -9.57800440839345e-06,
      "longitude_deg": 169.24986085520095,
      "height_km": 476.01994903296213,
      "semi_major_axis_km": 6853.383507295724,
      "eccentricity": 0.00011442,
      "inclination_deg": 53.1592,
      "raan_deg": 138.3056,
      "arg_perigee_deg": 80.847,
      "mean_anomaly_deg": 279.266,
      "mean_motion_rev_day": 15.30189471
    },
    {
      "epoch": "2026-03-30T10:33:52.221600Z",
      "apogee_km": 476.1529588483145,
      "perigee_km": 474.352984506153,
      "latitude_deg": -1.579152425711472e-05,
      "longitude_deg": 147.15230448857275,
      "height_km": 476.15823322983607,
      "semi_major_axis_km": 6853.389971677234,
      "eccentricity": 0.00013132,
      "inclination_deg": 53.1602,
      "raan_deg": 133.4518,
      "arg_perigee_deg": 90.4601,
      "mean_anomaly_deg": 269.655,
      "mean_motion_rev_day": 15.30187306
    },
    {
      "epoch": "2026-03-30T19:58:11.182368Z",
      "apogee_km": 476.1519265963316,
      "perigee_km": 474.33920690742525,
      "latitude_deg": 1.4022291736454705e-05,
      "longitude_deg": 3.865763368123076,
      "height_km": 476.2144921012,
      "semi_major_axis_km": 6853.382566751878,
      "eccentricity": 0.00013225,
      "inclination_deg": 53.1606,
      "raan_deg": 131.6305,
      "arg_perigee_deg": 94.484,
      "mean_anomaly_deg": 265.6312,
      "mean_motion_rev_day": 15.30189786
    },
    {
      "epoch": "2026-03-31T11:38:43.283616Z",
      "apogee_km": 476.11944799902085,
      "perigee_km": 474.3803325417448,
      "latitude_deg": -8.741325819070232e-06,
      "longitude_deg": 125.05551873778965,
      "height_km": 476.16196488559734,
      "semi_major_axis_km": 6853.3868902703825,
      "eccentricity": 0.00012688,
      "inclination_deg": 53.1611,
      "raan_deg": 128.5978,
      "arg_perigee_deg": 90.9148,
      "mean_anomaly_deg": 269.1998,
      "mean_motion_rev_day": 15.30188338
    },
    {
      "epoch": "2026-04-01T11:09:31.150368Z",
      "apogee_km": 475.9966228465755,
      "perigee_km": 474.49162035227164,
      "latitude_deg": 3.7646129069483486e-05,
      "longitude_deg": 126.84145302757156,
      "height_km": 476.13849116292175,
      "semi_major_axis_km": 6853.381121599424,
      "eccentricity": 0.0001098,
      "inclination_deg": 53.1598,
      "raan_deg": 124.0488,
      "arg_perigee_deg": 89.7024,
      "mean_anomaly_deg": 270.4103,
      "mean_motion_rev_day": 15.3019027
    },
    {
      "epoch": "2026-04-02T18:30:35.428896Z",
      "apogee_km": 475.9938754012137,
      "perigee_km": 474.510801948325,
      "latitude_deg": -2.2069765338587303e-05,
      "longitude_deg": 9.217834974453302,
      "height_km": 476.2127184787012,
      "semi_major_axis_km": 6853.3893386747695,
      "eccentricity": 0.0001082,
      "inclination_deg": 53.1593,
      "raan_deg": 117.9806,
      "arg_perigee_deg": 94.8056,
      "mean_anomaly_deg": 265.3068,
      "mean_motion_rev_day": 15.30187518
    }
  ]
}